[{"OBJECT_NAME":"STARLINK-2407","OBJECT_ID":"2021-018AM","EPOCH":"2026-03-09T19:17:37.639104","MEAN_MOTION":15.30202412,"ECCENTRICITY":0.00012522,"INCLINATION":53.1597,"RA_OF_ASC_NODE":254.7615,"ARG_OF_PERICENTER":109.229,"MEAN_ANOMALY":250.8847,"EPHEMERIS_TYPE":0,"CLASSIFICATION_TYPE":"U","NORAD_CAT_ID":47822,"ELEMENT_SET_NO":999,"REV_AT_EPOCH":27657,"BSTAR":9.0313877e-5,"MEAN_MOTION_DOT":2.317e-5,"MEAN_MOTION_DDOT":0},{"OBJECT_NAME":"NUSAT-44 (MARIA MITCHELL)","OBJECT_ID":"2024-043AA","EPOCH":"2026-03-09T22:12:18.524160","MEAN_MOTION":15.29764305,"ECCENTRICITY":0.0007331,"INCLINATION":97.5299,"RA_OF_ASC_NODE":207.7691,"ARG_OF_PERICENTER":214.9017,"MEAN_ANOMALY":145.1743,"EPHEMERIS_TYPE":0,"CLASSIFICATION_TYPE":"U","NORAD_CAT_ID":59122,"ELEMENT_SET_NO":999,"REV_AT_EPOCH":11209,"BSTAR":0.00061063193,"MEAN_MOTION_DOT":0.00017562,"MEAN_MOTION_DDOT":0}]
